start=new Date('2022-08-19T00:00:00.000Z').valueOf();
sats=[{"RA_OF_ASC_NODE":"0.4292","FILE":"3539615","BSTAR":"0.00007997100000","GP_ID":"210475940","SEMIMAJOR_AXIS":"6917.874","TLE_LINE2":"2 51118  53.2181   0.4292 0001677  54.8366 305.2783 15.08841928 32771","INCLINATION":"53.2181","MEAN_ANOMALY":"305.2783","DECAY_DATE":null,"OBJECT_ID":"2022-005Q","NORAD_CAT_ID":"51118","CENTER_NAME":"EARTH","ARG_OF_PERICENTER":"54.8366","LAUNCH_DATE":"2022-01-19","REV_AT_EPOCH":"3277","OBJECT_TYPE":"PAYLOAD","CLASSIFICATION_TYPE":"U","MEAN_ELEMENT_THEORY":"SGP4","PERIOD":"95.437","OBJECT_NAME":"STARLINK-3394","MEAN_MOTION_DOT":"0.00000985","ECCENTRICITY":"0.00016770","APOAPSIS":"540.900","RCS_SIZE":"LARGE","MEAN_MOTION":"15.08841928","REF_FRAME":"TEME","TIME_SYSTEM":"UTC","ELEMENT_SET_NO":"999","MEAN_MOTION_DDOT":"0.0000000000000","PERIAPSIS":"538.579","EPHEMERIS_TYPE":"0","COUNTRY_CODE":"US","EPOCH":"2022-08-18T17:11:46.421664","SITE":"AFETR","TLE_LINE1":"1 51118U 22005Q   22230.71650951  .00000985  00000-0  79971-4 0  9997"},{"CLASSIFICATION_TYPE":"U","MEAN_ELEMENT_THEORY":"SGP4","CENTER_NAME":"EARTH","LAUNCH_DATE":"2022-01-19","ARG_OF_PERICENTER":"71.6000","REV_AT_EPOCH":"3279","OBJECT_TYPE":"PAYLOAD","MEAN_ANOMALY":"288.5172","DECAY_DATE":null,"OBJECT_ID":"2022-005R","NORAD_CAT_ID":"51119","RA_OF_ASC_NODE":"359.9470","FILE":"3539615","BSTAR":"0.00009276200000","GP_ID":"210476692","SEMIMAJOR_AXIS":"6917.864","TLE_LINE2":"2 51119  53.2175 359.9470 0001650  71.6000 288.5172 15.08845390 32792","INCLINATION":"53.2175","COUNTRY_CODE":"US","EPOCH":"2022-08-18T19:50:44.441664","SITE":"AFETR","TLE_LINE1":"1 51119U 22005R   22230.82690326  .00001189  00000-0  92762-4 0  9990","PERIAPSIS":"538.587","EPHEMERIS_TYPE":"0","REF_FRAME":"TEME","TIME_SYSTEM":"UTC","ELEMENT_SET_NO":"999","MEAN_MOTION_DDOT":"0.0000000000000","OBJECT_NAME":"STARLINK-3390","PERIOD":"95.437","MEAN_MOTION_DOT":"0.00001189","ECCENTRICITY":"0.00016500","APOAPSIS":"540.870","MEAN_MOTION":"15.08845390","RCS_SIZE":"LARGE"},{"REV_AT_EPOCH":"3272","CENTER_NAME":"EARTH","ARG_OF_PERICENTER":"53.7397","LAUNCH_DATE":"2022-01-19","OBJECT_TYPE":"PAYLOAD","CLASSIFICATION_TYPE":"U","MEAN_ELEMENT_THEORY":"SGP4","FILE":"3539281","RA_OF_ASC_NODE":"2.0693","TLE_LINE2":"2 51120  53.2177   2.0693 0001418  53.7397 306.3726 15.08839940 32722","INCLINATION":"53.2177","BSTAR":"0.00032443000000","SEMIMAJOR_AXIS":"6917.881","GP_ID":"210442711","MEAN_ANOMALY":"306.3726","DECAY_DATE":null,"OBJECT_ID":"2022-005S","NORAD_CAT_ID":"51120","PERIAPSIS":"538.765","EPHEMERIS_TYPE":"0","COUNTRY_CODE":"US","EPOCH":"2022-08-18T08:32:27.056544","SITE":"AFETR","TLE_LINE1":"1 51120U 22005S   22230.35586871  .00004879  00000-0  32443-3 0  9997","PERIOD":"95.438","MEAN_MOTION_DOT":"0.00004879","OBJECT_NAME":"STARLINK-3398","ECCENTRICITY":"0.00014180","RCS_SIZE":"LARGE","MEAN_MOTION":"15.08839940","APOAPSIS":"540.727","REF_FRAME":"TEME","MEAN_MOTION_DDOT":"0.0000000000000","TIME_SYSTEM":"UTC","ELEMENT_SET_NO":"999"},{"OBJECT_TYPE":"PAYLOAD","ARG_OF_PERICENTER":"47.6945","LAUNCH_DATE":"2022-01-19","CENTER_NAME":"EARTH","REV_AT_EPOCH":"3274","MEAN_ELEMENT_THEORY":"SGP4","CLASSIFICATION_TYPE":"U","GP_ID":"210442960","SEMIMAJOR_AXIS":"6917.894","BSTAR":"0.00008039000000","INCLINATION":"53.2188","TLE_LINE2":"2 51121  53.2188   1.3857 0001664  47.6945 312.4188 15.08835394 32744","FILE":"3539281","RA_OF_ASC_NODE":"1.3857","NORAD_CAT_ID":"51121","OBJECT_ID":"2022-005T","DECAY_DATE":null,"MEAN_ANOMALY":"312.4188","EPHEMERIS_TYPE":"0","PERIAPSIS":"538.608","TLE_LINE1":"1 51121U 22005T   22230.50306814  .00000991  00000-0  80390-4 0  9998","SITE":"AFETR","EPOCH":"2022-08-18T12:04:25.087296","COUNTRY_CODE":"US","APOAPSIS":"540.911","MEAN_MOTION":"15.08835394","RCS_SIZE":"LARGE","ECCENTRICITY":"0.00016640","PERIOD":"95.438","MEAN_MOTION_DOT":"0.00000991","OBJECT_NAME":"STARLINK-3399","ELEMENT_SET_NO":"999","TIME_SYSTEM":"UTC","MEAN_MOTION_DDOT":"0.0000000000000","REF_FRAME":"TEME"},{"REV_AT_EPOCH":"3274","ARG_OF_PERICENTER":"73.4922","LAUNCH_DATE":"2022-01-19","CENTER_NAME":"EARTH","OBJECT_TYPE":"PAYLOAD","CLASSIFICATION_TYPE":"U","MEAN_ELEMENT_THEORY":"SGP4","FILE":"3539281","RA_OF_ASC_NODE":"1.4559","INCLINATION":"53.2178","TLE_LINE2":"2 51122  53.2178   1.4559 0001435  73.4922 286.6228 15.08855873 32743","SEMIMAJOR_AXIS":"6917.832","GP_ID":"210443711","BSTAR":"0.00053439000000","DECAY_DATE":null,"MEAN_ANOMALY":"286.6228","NORAD_CAT_ID":"51122","OBJECT_ID":"2022-005U","EPHEMERIS_TYPE":"0","PERIAPSIS":"538.704","EPOCH":"2022-08-18T11:48:31.245984","COUNTRY_CODE":"US","TLE_LINE1":"1 51122U 22005U   22230.49202831  .00008231  00000-0  53439-3 0  9999","SITE":"AFETR","PERIOD":"95.437","OBJECT_NAME":"STARLINK-3373","MEAN_MOTION_DOT":"0.00008231","ECCENTRICITY":"0.00014350","RCS_SIZE":"LARGE","MEAN_MOTION":"15.08855873","APOAPSIS":"540.690","REF_FRAME":"TEME","MEAN_MOTION_DDOT":"0.0000000000000","ELEMENT_SET_NO":"999","TIME_SYSTEM":"UTC"},{"CENTER_NAME":"EARTH","ARG_OF_PERICENTER":"58.5291","LAUNCH_DATE":"2022-01-19","REV_AT_EPOCH":"3279","OBJECT_TYPE":"PAYLOAD","CLASSIFICATION_TYPE":"U","MEAN_ELEMENT_THEORY":"SGP4","RA_OF_ASC_NODE":"0.0025","FILE":"3539615","BSTAR":"0.00027715000000","SEMIMAJOR_AXIS":"6917.850","GP_ID":"210477192","TLE_LINE2":"2 51123  53.2180   0.0025 0001589  58.5291 301.5857 15.08849801 32797","INCLINATION":"53.2180","MEAN_ANOMALY":"301.5857","DECAY_DATE":null,"OBJECT_ID":"2022-005V","NORAD_CAT_ID":"51123","PERIAPSIS":"538.616","EPHEMERIS_TYPE":"0","COUNTRY_CODE":"US","EPOCH":"2022-08-18T19:34:50.705760","SITE":"AFETR","TLE_LINE1":"1 51123U 22005V   22230.81586465  .00004127  00000-0  27715-3 0  9992","ECCENTRICITY":"0.00015890","PERIOD":"95.437","MEAN_MOTION_DOT":"0.00004127","OBJECT_NAME":"STARLINK-3392","APOAPSIS":"540.815","MEAN_MOTION":"15.08849801","RCS_SIZE":"LARGE","REF_FRAME":"TEME","TIME_SYSTEM":"UTC","ELEMENT_SET_NO":"999","MEAN_MOTION_DDOT":"0.0000000000000"},{"REF_FRAME":"TEME","MEAN_MOTION_DDOT":"0.0000000000000","ELEMENT_SET_NO":"999","TIME_SYSTEM":"UTC","PERIOD":"95.437","ECCENTRICITY":"0.00015030","MEAN_MOTION_DOT":"0.00001160","OBJECT_NAME":"STARLINK-3389","MEAN_MOTION":"15.08844413","RCS_SIZE":"LARGE","APOAPSIS":"540.772","EPOCH":"2022-08-18T17:26:20.522688","COUNTRY_CODE":"US","TLE_LINE1":"1 51124U 22005W   22230.72662642  .00001160  00000-0  90952-4 0  9993","SITE":"AFETR","EPHEMERIS_TYPE":"0","PERIAPSIS":"538.692","DECAY_DATE":null,"MEAN_ANOMALY":"291.2136","NORAD_CAT_ID":"51124","OBJECT_ID":"2022-005W","RA_OF_ASC_NODE":"10.3964","FILE":"3539615","INCLINATION":"53.2200","TLE_LINE2":"2 51124  53.2200  10.3964 0001503  68.9017 291.2136 15.08844413 32647","SEMIMAJOR_AXIS":"6917.867","GP_ID":"210477441","BSTAR":"0.00009095200000","CLASSIFICATION_TYPE":"U","MEAN_ELEMENT_THEORY":"SGP4","REV_AT_EPOCH":"3264","LAUNCH_DATE":"2022-01-19","ARG_OF_PERICENTER":"68.9017","CENTER_NAME":"EARTH","OBJECT_TYPE":"PAYLOAD"},{"MEAN_ELEMENT_THEORY":"SGP4","CLASSIFICATION_TYPE":"U","OBJECT_TYPE":"PAYLOAD","REV_AT_EPOCH":"3262","LAUNCH_DATE":"2022-01-19","ARG_OF_PERICENTER":"58.4317","CENTER_NAME":"EARTH","NORAD_CAT_ID":"51125","OBJECT_ID":"2022-005X","DECAY_DATE":null,"MEAN_ANOMALY":"301.6834","INCLINATION":"53.2185","TLE_LINE2":"2 51125  53.2185  10.4515 0001636  58.4317 301.6834 15.08861734 32621","GP_ID":"210475691","SEMIMAJOR_AXIS":"6917.814","BSTAR":"0.00042771000000","RA_OF_ASC_NODE":"10.4515","FILE":"3539615","TLE_LINE1":"1 51125U 22005X   22230.71558190  .00006530  00000-0  42771-3 0  9996","SITE":"AFETR","EPOCH":"2022-08-18T17:10:26.276160","COUNTRY_CODE":"US","EPHEMERIS_TYPE":"0","PERIAPSIS":"538.547","MEAN_MOTION_DDOT":"0.0000000000000","ELEMENT_SET_NO":"999","TIME_SYSTEM":"UTC","REF_FRAME":"TEME","MEAN_MOTION":"15.08861734","RCS_SIZE":"LARGE","APOAPSIS":"540.811","PERIOD":"95.436","ECCENTRICITY":"0.00016360","MEAN_MOTION_DOT":"0.00006530","OBJECT_NAME":"STARLINK-3387"},{"CLASSIFICATION_TYPE":"U","MEAN_ELEMENT_THEORY":"SGP4","CENTER_NAME":"EARTH","ARG_OF_PERICENTER":"58.9589","LAUNCH_DATE":"2022-01-19","REV_AT_EPOCH":"3264","OBJECT_TYPE":"PAYLOAD","MEAN_ANOMALY":"301.1572","DECAY_DATE":null,"OBJECT_ID":"2022-005Y","NORAD_CAT_ID":"51126","RA_OF_ASC_NODE":"10.4199","FILE":"3539615","BSTAR":"0.00014001000000","SEMIMAJOR_AXIS":"6917.872","GP_ID":"210475941","TLE_LINE2":"2 51126  53.2196  10.4199 0001719  58.9589 301.1572 15.08842602 32649","INCLINATION":"53.2196","COUNTRY_CODE":"US","EPOCH":"2022-08-18T17:21:02.565504","SITE":"AFETR","TLE_LINE1":"1 51126U 22005Y   22230.72294636  .00001941  00000-0  14001-3 0  9996","PERIAPSIS":"538.548","EPHEMERIS_TYPE":"0","REF_FRAME":"TEME","TIME_SYSTEM":"UTC","ELEMENT_SET_NO":"999","MEAN_MOTION_DDOT":"0.0000000000000","ECCENTRICITY":"0.00017190","PERIOD":"95.437","MEAN_MOTION_DOT":"0.00001941","OBJECT_NAME":"STARLINK-3386","APOAPSIS":"540.927","RCS_SIZE":"LARGE","MEAN_MOTION":"15.08842602"},{"SITE":"AFETR","TLE_LINE1":"1 51127U 22005Z   22230.71927075  .00004819  00000-0  32064-3 0  9992","COUNTRY_CODE":"US","EPOCH":"2022-08-18T17:15:44.992800","PERIAPSIS":"538.603","EPHEMERIS_TYPE":"0","TIME_SYSTEM":"UTC","ELEMENT_SET_NO":"999","MEAN_MOTION_DDOT":"0.0000000000000","REF_FRAME":"TEME","APOAPSIS":"540.855","MEAN_MOTION":"15.08845439","RCS_SIZE":"LARGE","OBJECT_NAME":"STARLINK-3370","PERIOD":"95.437","MEAN_MOTION_DOT":"0.00004819","ECCENTRICITY":"0.00016280","MEAN_ELEMENT_THEORY":"SGP4","CLASSIFICATION_TYPE":"U","OBJECT_TYPE":"PAYLOAD","CENTER_NAME":"EARTH","ARG_OF_PERICENTER":"67.4129","LAUNCH_DATE":"2022-01-19","REV_AT_EPOCH":"3263","OBJECT_ID":"2022-005Z","NORAD_CAT_ID":"51127","MEAN_ANOMALY":"292.7035","DECAY_DATE":null,"BSTAR":"0.00032064000000","SEMIMAJOR_AXIS":"6917.864","GP_ID":"210476693","TLE_LINE2":"2 51127  53.2186  10.4331 0001628  67.4129 292.7035 15.08845439 32630","INCLINATION":"53.2186","FILE":"3539615","RA_OF_ASC_NODE":"10.4331"}];
